TIANWANG 1C (TW-1C)     
1 40926U 15051B   17175.40397383  .00006103  00000-0  14109-3 0  9999
2 40926  97.2299 214.9093 0013079 136.4082 348.7346 15.42776418 98033
TIANWANG 1B (TW-1B)     
1 40927U 15051C   17175.54047521  .00005717  00000-0  13728-3 0  9997
2 40927  97.2386 215.0584 0012616 145.0904 319.0719 15.41669934 98008
TIANWANG 1A (TW-1A)     
1 40928U 15051D   17175.59009795  .00002842  00000-0  82772-4 0  9996
2 40928  97.2270 211.2729 0013182 163.4302 347.8115 15.36142514 97838
LAPAN-A2 (IO-86)        
1 40931U 15052B   17175.47202293  .00000650  00000-0  13887-5 0  9993
2 40931   5.9994 180.7764 0013735 346.8709  13.1084 14.76530999 94041
LQSAT                   
1 40958U 15057A   17175.58459152  .00000025  00000-0  11612-4 0  9996
2 40958  97.9778 250.7753 0019362  45.4064 314.8722 14.72969313 92214
CHUBUSAT-2              
1 41338U 16012B   17175.07443779  .00000345  00000-0  20420-4 0  9995
2 41338  31.0039  68.5175 0013868 128.3480 231.8404 14.99746805 74029
CHUBUSAT-3              
1 41339U 16012C   17175.06825171  .00000356  00000-0  21164-4 0  9993
2 41339  31.0119  67.6899 0013674 134.8400 225.3347 14.99952056 74000
OUFTI-1                 
1 41458U 16025C   17175.56667419  .00001247  00000-0  71451-4 0  9997
2 41458  98.1858 213.5704 0172615 264.9142  93.2356 15.03197691 63699
E-ST@R-II               
1 41459U 16025D   17175.58843214  .00001943  00000-0  10880-3 0  9990
2 41459  98.1818 213.5333 0173182 264.6646  93.4789 15.03030676 63680
AAUSAT 4                
1 41460U 16025E   17175.58150812  .00002130  00000-0  11846-3 0  9999
2 41460  98.1779 213.6383 0166643 263.4736  94.7497 15.03926114 63709
NUSAT 1 (LO-87)         
1 41557U 16033B   17175.54946301  .00001274  00000-0  50699-4 0  9995
2 41557  97.4632 255.0665 0013803 348.4832  11.6089 15.27064997 59550
BEESAT-4                
1 41619U 16040W   17175.23183377  .00001456  00000-0  69136-4 0  9992
2 41619  97.4621 237.5512 0013333  49.5671 310.6725 15.20768177 43669
PRATHAM                 
1 41783U 16059A   17175.47983438  .00000025  00000-0  14358-4 0  9993
2 41783  98.1665 236.7787 0034651 136.4571 223.9375 14.62840068 39660
ALSAT 1N                
1 41789U 16059G   17175.53069389  .00000086  00000-0  25498-4 0  9990
2 41789  98.1667 237.3432 0029256 129.9268 230.4520 14.64051784 39685
NAYIF-1 (EO-88)         
1 42017U 17008BX  17175.59610145  .00001521  00000-0  67730-4 0  9998
2 42017  97.4949 237.0385 0006471 180.6745 179.4483 15.22992963 19616
LILACSAT-1              
1 42725U 98067ME  17175.54189038  .00008118  00000-0  12488-3 0  9993
2 42725  51.6406   1.4722 0006506 339.6720  20.4011 15.55182977  4649
